,Restaurant,User-Rating,No-Ratings,Address,Feature1,Feature2,Feature3,Feature4,Feature5,City,ProperAddress,Location,RestaurantLatitude,RestaurantLongitude,CenterLatitude,CenterLongitude,DistanceCityCenter,DistanceCEU
0, Pizza Rakéta,4.3,402,Nefelejcs utca 51,Olasz,Vegán,Pizza,Vegán,Algida,Budapest,Budapest Nefelejcs utca 51,"51, Nefelejcs utca, Ligetváros, Erzsébetváros, VII. kerület, Közép-Magyarország, 1078, Magyarország",47.5056866,19.0793384,47.4983815,19.0404707,3.038863588565406 km,2.261602141113505 km
1, Pizza Hut Arany János,4.4,250,Arany János utca 31,Pizza,Készpénzes fizetés,SZÉP kártyás fizetés,,,Budapest,Budapest Arany János utca 31,"Pizza Hut, 31, Arany János utca, Lipótváros, Budapest, Közép-Magyarország, 1051, Magyarország",47.5023808,19.0539236,47.4983815,19.0404707,1.1068231725600275 km,0.3271515187756391 km
2, Klikk Bistrobar,,,Holló utca 10,Pizza,NetPincér GO,SZÉP kártyás fizetés,Érintkezésmentes kiszállítás,,Budapest,Budapest Holló utca 10,"Sáo food & bar, 10, Holló utca, Terézváros, Budapest, Közép-Magyarország, 1075, Magyarország",47.498675,19.059638,47.4983815,19.0404707,1.4445417238257943 km,0.7567058709854655 km
3, BITE Bakery Café - Oktogon,4.9,24,Oktogon 4,Pizza,Reggelizőhely,Pékség,NetPincér GO,SZÉP kártyás fizetés,Budapest,Budapest Oktogon 4,"Made in Pasta, 4, Oktogon, Terézváros, Budapest, Közép-Magyarország, 1067, Magyarország",47.5057088,19.0635912,47.4983815,19.0404707,1.9229983734852263 km,1.1437914295529397 km
4, Princess Bakery & Bistro,3.6,3,Kossuth Lajos tér 1,Pékség,Pizza,NetPincér GO,Érintkezésmentes kiszállítás,,Budapest,Budapest Kossuth Lajos tér 1,"Országgyűlési Könyvtár, 1-3, Kossuth Lajos tér, Lipótváros, V. kerület, Közép-Magyarország, 1055, Magyarország",47.5064257,19.0452978,47.4983815,19.0404707,0.9654726937219353 km,0.7133736001673724 km
5, Mini Milano Pizza,4.8,18,Boráros tér .,Hamburger,Pizza,NetPincér GO,SZÉP kártyás fizetés,Érintkezésmentes kiszállítás,Budapest,Budapest Boráros tér .,"Boráros tér, Belső-Ferencváros, IX. kerület, Budapest, Közép-Magyarország, 1093, Magyarország",47.4805095,19.0661269,47.4983815,19.0404707,2.7724236625628738 km,2.5684711797120556 km
6, Első Pesti Rétesház Étterem Expressz,4.8,29,Október 6. utca 22,Cukrászda,Grill,Magyaros,Pizza,NetPincér GO,Budapest,Budapest Október 6. utca 22,"Első Pesti Rétesház, 22, Október 6. utca, Lipótváros, Budapest, Közép-Magyarország, 1051, Magyarország",47.5017529,19.0506671,47.4983815,19.0404707,0.8547990250550832 km,0.10048584990278095 km
7, Trabant Retro Bisztró Expressz,4.7,15,Október 6. utca 22,Grill,Magyaros,Pizza,NetPincér GO,SZÉP kártyás fizetés,Budapest,Budapest Október 6. utca 22,"Első Pesti Rétesház, 22, Október 6. utca, Lipótváros, Budapest, Közép-Magyarország, 1051, Magyarország",47.5017529,19.0506671,47.4983815,19.0404707,0.8547990250550832 km,0.10048584990278095 km
8, Moody Pizza,4,26,Duna utca 3,Magyaros,Pizza,Készpénzes fizetés,SZÉP kártyás fizetés,,Budapest,Budapest Duna utca 3,"Vinolia, 3, Duna utca, Belváros, Budapest, Közép-Magyarország, 1056, Magyarország",47.4917539,19.0534548,47.4983815,19.0404707,1.2248064158084848 km,1.04877044723101 km
9, DonMash Pizza,4.1,66,Váci utca 41,Cukrászda,Pizza,Készpénzes fizetés,SZÉP kártyás fizetés,,Budapest,Budapest Váci utca 41,"Paparazzi, 41/a, Váci utca, Belváros, Budapest, Közép-Magyarország, 1056, Magyarország",47.4915752,19.0537983,47.4983815,19.0404707,1.257435597577912 km,1.074401314601633 km
10, Enrico from Sicily,3.9,35,Váci utca 41,Pizza,Olasz,Készpénzes fizetés,SZÉP kártyás fizetés,,Budapest,Budapest Váci utca 41,"Paparazzi, 41/a, Váci utca, Belváros, Budapest, Közép-Magyarország, 1056, Magyarország",47.4915752,19.0537983,47.4983815,19.0404707,1.257435597577912 km,1.074401314601633 km
11, Pizza Hungarica,3.7,25,Duna utca 3,Reggelizőhely,Cukrászda,Pizza,Reggelizőhely,Készpénzes fizetés,Budapest,Budapest Duna utca 3,"Vinolia, 3, Duna utca, Belváros, Budapest, Közép-Magyarország, 1056, Magyarország",47.4917539,19.0534548,47.4983815,19.0404707,1.2248064158084848 km,1.04877044723101 km
12, Magyar Menübár,4,71,Üllői út 121,Pizza,Reggelizőhely,Tészta,Leves,Magyaros,Budapest,Budapest Üllői út 121,"Nagyvárad Gyógyszertár, 121, Üllői út, Középső-Ferencváros, Budapest, Közép-Magyarország, 1091, Magyarország",47.4791363,19.0883315,47.4983815,19.0404707,4.193694969751101 km,3.7604397915647234 km
13, Home Bistro extra,3.6,30,Üllői út 121,Pizza,Reggelizőhely,Magyaros,Reggelizőhely,Készpénzes fizetés,Budapest,Budapest Üllői út 121,"Nagyvárad Gyógyszertár, 121, Üllői út, Középső-Ferencváros, Budapest, Közép-Magyarország, 1091, Magyarország",47.4791363,19.0883315,47.4983815,19.0404707,4.193694969751101 km,3.7604397915647234 km
14, Duplo pizza,4.1,31,Üllői út 121,Pizza,Készpénzes fizetés,,,,Budapest,Budapest Üllői út 121,"Nagyvárad Gyógyszertár, 121, Üllői út, Középső-Ferencváros, Budapest, Közép-Magyarország, 1091, Magyarország",47.4791363,19.0883315,47.4983815,19.0404707,4.193694969751101 km,3.7604397915647234 km
15, 50minutes,4.6,398,Fő utca 51,Olasz,Magyaros,Hamburger,Pizza,Algida,Budapest,Budapest Fő utca 51,"51, Fő utca, Víziváros, Budapest, Közép-Magyarország, 1027, Magyarország",47.508219350000005,19.0384802,47.4983815,19.0404707,1.1040109564494742 km,1.196931160803151 km
16, Pizza King Belváros,3.9,1484,István utca 26,Olasz,Pizza,Készpénzes fizetés,SZÉP kártyás fizetés,,Budapest,Budapest István utca 26,"26, István utca, Ligetváros, Erzsébetváros, VII. kerület, Közép-Magyarország, 1078, Magyarország",47.5054783,19.0828797,47.4983815,19.0404707,3.291110347276609 km,2.5169789910043594 km
17, Il Treno - Trombitás,4.5,382,Retek utca 12,Pizza,Olasz,Készpénzes fizetés,,,Budapest,Budapest Retek utca 12,"Hunyadi Gasztroműhely, 12, Retek utca, Országút, Budapest, Közép-Magyarország, 1024, Magyarország",47.5081855,19.0247339,47.4983815,19.0404707,1.6105163910875513 km,2.07867110655428 km
18, Trófea Grill Étterem Zugló,4.8,1881,Erzsébet királyné útja 5-7.,Olasz,Magyaros,Sushi,Hamburger,Amerikai,Budapest,Budapest Erzsébet királyné útja 5-7.,"Erzsébet királyné útja, Herminamező, XIV. kerület, Budapest, Közép-Magyarország, 1145, Magyarország",47.5219489,19.1008952,47.4983815,19.0404707,5.252028940813863 km,4.4805564702666265 km
19, Grand Re Pizza Hungary,4.7,119,Akácfa utca 65.,Pizza,NetPincér GO,SZÉP kártyás fizetés,Érintkezésmentes kiszállítás,,Budapest,Budapest Akácfa utca 65.,"65, Akácfa utca, Terézváros, VI. kerület, Budapest, Közép-Magyarország, 1073, Magyarország",47.5018885,19.063689,47.4983815,19.0404707,1.792271797767323 km,1.0253055918082952 km
20, Mr Smith's Pizza,4.5,8,Klauzál tér 10,Pizza,NetPincér GO,SZÉP kártyás fizetés,Érintkezésmentes kiszállítás,,Budapest,Budapest Klauzál tér 10,"Klauzál tér, Ligetváros, Erzsébetváros, VII. kerület, Budapest, Közép-Magyarország, 1072, Magyarország",47.5004821,19.0637521,47.4983815,19.0404707,1.7696016379220652 km,1.025528223083627 km
21, Rokfort Étterem,5,2,Szalay utca 3,Magyaros,Pizza,NetPincér GO,SZÉP kártyás fizetés,Érintkezésmentes kiszállítás,Budapest,Budapest Szalay utca 3,"3, Szalay utca, Lipótváros, V. kerület, Budapest, Közép-Magyarország, 1055, Magyarország",47.5084347,19.0492162,47.4983815,19.0404707,1.2974654826668568 km,0.8386875940928338 km
22, Bonnie Restro Comics,5,26,Ferenciek tere 5,Nemzetközi,Pizza,NetPincér GO,SZÉP kártyás fizetés,Érintkezésmentes kiszállítás,Budapest,Budapest Ferenciek tere 5,"Ibolya espresso, 5, Ferenciek tere, Belváros, Budapest, Közép-Magyarország, 1053, Magyarország",47.4922815,19.0564725,47.4983815,19.0404707,1.3833887889540222 km,1.0717133625212434 km
23, Da Giovanni Pizzéria - 7. kerület,4.3,12,Dohány utca 88,Olasz,Pizza,Algida,Készpénzes fizetés,SZÉP kártyás fizetés,Budapest,Budapest Dohány utca 88,"Budapesti Bárczi Gusztáv Óvoda, Általános Iskola és Készségfejlesztő Speciális Szakiskola, 88, Dohány utca, Ligetváros, Erzsébetváros, VII. kerület, Budapest, Közép-Magyarország, 1074, Magyarország",47.5004935,19.0730636,47.4983815,19.0404707,2.4668924559479533 km,1.7265794059095618 km
24, Vidocq Étterem,4,130,Lajos utca 98,Olasz,Magyaros,Pizza,Készpénzes fizetés,,Budapest,Budapest Lajos utca 98,"Vidocq Étterem, 98, Lajos utca, Óbuda, III. kerület, Budapest, Közép-Magyarország, 1036, Magyarország",47.5330609,19.0407838,47.4983815,19.0404707,3.855758852990389 km,3.6427092702598696 km
25, Deli Very Food,5,19,Angyalföldi út 17,Pizza,Fusion,NetPincér GO,SZÉP kártyás fizetés,Érintkezésmentes kiszállítás,Budapest,Budapest Angyalföldi út 17,"17, Angyalföldi út, Lőportárdűlő, Angyalföld, XIII. kerület, Budapest, Közép-Magyarország, 1134, Magyarország",47.5257383,19.0658389,47.4983815,19.0404707,3.5920116077509188 km,3.0017502196605896 km
26, Ragazzi Pizza & Burger,4,144,Lajos utca 98,Hamburger,Pizza,Készpénzes fizetés,,,Budapest,Budapest Lajos utca 98,"Vidocq Étterem, 98, Lajos utca, Óbuda, III. kerület, Budapest, Közép-Magyarország, 1036, Magyarország",47.5330609,19.0407838,47.4983815,19.0404707,3.855758852990389 km,3.6427092702598696 km
27, Bettolino Pizza & Pasta - Haller utca,4.5,2,Haller utca 24,Olasz,Pizza,Tészta,Vegetariánus,NetPincér GO,Budapest,Budapest Haller utca 24,"Bettolino Pizzeria, 24, Haller utca, Középső-Ferencváros, Budapest, Közép-Magyarország, 1096, Magyarország",47.4758706,19.0741235,47.4983815,19.0404707,3.563126378493619 km,3.3192599602875896 km
28, Avanti Pizzéria - Lajos utca,3.9,94,Lajos utca 98,Olasz,Hamburger,Amerikai,Pizza,Készpénzes fizetés,Budapest,Budapest Lajos utca 98,"Vidocq Étterem, 98, Lajos utca, Óbuda, III. kerület, Budapest, Közép-Magyarország, 1036, Magyarország",47.5330609,19.0407838,47.4983815,19.0404707,3.855758852990389 km,3.6427092702598696 km
29, Theo Papa Konyhája,4.2,1487,Mártírok útja 240,Pizza,Nemzetközi,Magyaros,Mexikói,Amerikai,Budapest,Budapest Mártírok útja 240,"240, Mártírok útja, Gubacsipuszta, XX. kerület, Közép-Magyarország, 1204, Magyarország",47.43382,19.1347863,47.4983815,19.0404707,10.103669141387355 km,9.81628932291232 km
30, Chicos Pizza & Nachos,3.9,286,Búza utca 6,Mexikói,Pizza,Készpénzes fizetés,,,Budapest,Budapest Búza utca 6,"Három Haver Söröző, 6, Búza utca, Kaszásdűlői lakótelep, III. kerület, Budapest, Közép-Magyarország, 1033, Magyarország",47.5581132,19.0449152,47.4983815,19.0404707,6.649466558061807 km,6.371245040996358 km
31, Street Magic,4.1,197,Búza utca 6,Mexikói,Hamburger,Amerikai,Saláta,Pizza,Budapest,Budapest Búza utca 6,"Három Haver Söröző, 6, Búza utca, Kaszásdűlői lakótelep, III. kerület, Budapest, Közép-Magyarország, 1033, Magyarország",47.5581132,19.0449152,47.4983815,19.0404707,6.649466558061807 km,6.371245040996358 km
32, Pizza Monkey Budapest,4.3,197,Kármán utca 3,Magyaros,Hamburger,Saláta,Vegán,Grill,Budapest,Budapest Kármán utca 3,"3, Kármán utca, Terézváros, VI. kerület, Budapest, Közép-Magyarország, 1067, Magyarország",47.5091879,19.0590404,47.4983815,19.0404707,1.844107613954235 km,1.1372653532778487 km
33, Mercetti - az olasz konyha szerelmese,4.8,347,Erkel utca 9,Pizza,Vegetariánus,Saláta,Tészta,Olasz,Budapest,Budapest Erkel utca 9,"9, Erkel utca, Belső-Ferencváros, IX. kerület, Budapest, Közép-Magyarország, 1092, Magyarország",47.48676695,19.062218952767136,47.4983815,19.0404707,2.0864374130674737 km,1.8170443113365586 km
34, Pizza Nepper,3,5,Vörösmarty tér 2,Pizza,NetPincér GO,SZÉP kártyás fizetés,Érintkezésmentes kiszállítás,,Budapest,Budapest Vörösmarty tér 2,"2, Vörösmarty tér, Belváros, V. kerület, Közép-Magyarország, 1051, Magyarország",47.49609,19.0512329,47.4983815,19.0404707,0.8499852548441458 km,0.5428966357681266 km
35, Ibolya Pizza,4.3,24,Ferenciek tere 5,Magyaros,Pizza,NetPincér GO,SZÉP kártyás fizetés,Érintkezésmentes kiszállítás,Budapest,Budapest Ferenciek tere 5,"Ibolya espresso, 5, Ferenciek tere, Belváros, Budapest, Közép-Magyarország, 1053, Magyarország",47.4922815,19.0564725,47.4983815,19.0404707,1.3833887889540222 km,1.0717133625212434 km
36, Il Classico Nyugati tér,2.6,5,Nyugati tér 6,Olasz,Pizza,NetPincér GO,SZÉP kártyás fizetés,Érintkezésmentes kiszállítás,Budapest,Budapest Nyugati tér 6,"Nyugati tér, Terézváros, VI. kerület, Budapest, Közép-Magyarország, 1065, Magyarország",47.5103735,19.0556197,47.4983815,19.0404707,1.7550393055960771 km,1.1289679080478827 km
37, Clooney Étterem és Pizza,2.8,5,Nyugati tér 6,Magyaros,Hamburger,Pizza,NetPincér GO,SZÉP kártyás fizetés,Budapest,Budapest Nyugati tér 6,"Nyugati tér, Terézváros, VI. kerület, Budapest, Közép-Magyarország, 1065, Magyarország",47.5103735,19.0556197,47.4983815,19.0404707,1.7550393055960771 km,1.1289679080478827 km
38," Zwekedli Étel, Kávé és Koktélbár",4,2,Bajcsy-Zsilinszky út 74,Pizza,Olasz,Magyaros,NetPincér GO,SZÉP kártyás fizetés,Budapest,Budapest Bajcsy-Zsilinszky út 74,"74, Bajcsy-Zsilinszky út, Lipótváros, V. kerület, Budapest, Közép-Magyarország, 1055, Magyarország",47.50852655,19.054716918238146,47.4983815,19.0404707,1.5569797842921032 km,0.913035947146394 km
39, Nemo Fish & Chips & Salad Házhozszállítás,4.5,150,Török utca 8,Nemzetközi,Magyaros,Vegetariánus,Halétel,Pizza,Budapest,Budapest Török utca 8,"8, Török utca, Felhévíz, Budapest, Közép-Magyarország, 1023, Magyarország",47.515648,19.0361137,47.4983815,19.0404707,1.9475598826259788 km,1.949603103447369 km
40, Patkó Bandi Étterem-Söröző,4.6,12,Váci út 12,Magyaros,Hamburger,Pizza,NetPincér GO,SZÉP kártyás fizetés,Budapest,Budapest Váci út 12,"12, Váci út, Újlipótváros, VI. kerület, Budapest, Közép-Magyarország, 1132, Magyarország",47.5128519,19.057197,47.4983815,19.0404707,2.043561772152234 km,1.4289065918658617 km
42, Dolce Vita Pizza,4.9,44,Erkel utca 9,Olasz,Pizza,Algida,Készpénzes fizetés,,Budapest,Budapest Erkel utca 9,"9, Erkel utca, Belső-Ferencváros, IX. kerület, Budapest, Közép-Magyarország, 1092, Magyarország",47.48676695,19.062218952767136,47.4983815,19.0404707,2.0864374130674737 km,1.8170443113365586 km
43," ""PizzaLabor - ha másra vágysz""",4.9,93,Erkel utca 9,Pizza,Algida,Készpénzes fizetés,SZÉP kártyás fizetés,,Budapest,Budapest Erkel utca 9,"9, Erkel utca, Belső-Ferencváros, IX. kerület, Budapest, Közép-Magyarország, 1092, Magyarország",47.48676695,19.062218952767136,47.4983815,19.0404707,2.0864374130674737 km,1.8170443113365586 km
44, Piazza di Francesco Kávéház és Bisztró,5,6,Ferenc tér 11,Pizza,Tészta,Pizza,NetPincér GO,SZÉP kártyás fizetés,Budapest,Budapest Ferenc tér 11,"Piazza di Francesco, 11, Ferenc tér, Középső-Ferencváros, Budapest, Közép-Magyarország, 1094, Magyarország",47.4813309,19.074424,47.4983815,19.0404707,3.1843942841526416 km,2.8437352483360754 km
45, Il Terzo Cerchio Étterem Pizzéria,4.3,360,Dohány u. 40,Olasz,Pizza,Készpénzes fizetés,SZÉP kártyás fizetés,,Budapest,Budapest Dohány u. 40,"Savannah Music Club, 40, Dohány utca, Ligetváros, Erzsébetváros, VII. kerület, Közép-Magyarország, 1074, Magyarország",47.496795,19.066363,47.4983815,19.0404707,1.9588652509611408 km,1.3043455961009314 km
46, Vapiano Belváros,4.2,228,Vörösmarty tér 3,Olasz,Pizza,Saláta,Tészta,NetPincér GO,Budapest,Budapest Vörösmarty tér 3,"Vapiano Fashion Street, 3, Vörösmarty tér, Belváros, Budapest, Közép-Magyarország, 1051, Magyarország",47.4964954,19.0512812,47.4983815,19.0404707,0.841100789359094 km,0.49898153365913167 km
47, Ponte Pizza and Restaurant,4.7,1195,Nefelejcs utca 14,Magyaros,Olasz,Pizza,Algida,Készpénzes fizetés,Budapest,Budapest Nefelejcs utca 14,"14, Nefelejcs utca, Ligetváros, Erzsébetváros, VII. kerület, Közép-Magyarország, 1078, Magyarország",47.5024945,19.0821633,47.4983815,19.0404707,3.1743531920318246 km,2.4178429093126304 km
48, Etna Házhozszállítás,4.7,226,Kertész utca 48,Olasz,Pizza,Ételérzékenyeknek is,Készpénzes fizetés,,Budapest,Budapest Kertész utca 48,"Szimpla kávézó, 48, Kertész utca, Ligetváros, Erzsébetváros, VII. kerület, Közép-Magyarország, 1073, Magyarország",47.5022659,19.0649928,47.4983815,19.0404707,1.8973746813250858 km,1.1278386238578129 km
49, All About Street Food,4.7,248,Múzeum utca 7,Pizza,Szendvics,Amerikai,Hamburger,Algida,Budapest,Budapest Múzeum utca 7,"Muzikum Klub, 7, Múzeum utca, Palotanegyed, Budapest, Közép-Magyarország, 1088, Magyarország",47.4900283,19.0631513,47.4983815,19.0404707,1.9450642560727984 km,1.5571599168035177 km
50, La Cipolla - Tradicionális olasz konyha,4.7,1438,Rózsafa utca 13,Olasz,Pizza,Algida,Készpénzes fizetés,SZÉP kártyás fizetés,Budapest,Budapest Rózsafa utca 13,"13, Rózsafa utca, Lőportárdűlő, Angyalföld, XIII. kerület, Budapest, Közép-Magyarország, 1134, Magyarország",47.52610936,19.06818778,47.4983815,19.0404707,3.723261902746 km,3.1127485131346853 km
51, Donna Mamma Pizza Napoletana,4.6,286,Rákóczi út 1-3,Pizza,NetPincér GO,SZÉP kártyás fizetés,Érintkezésmentes kiszállítás,,Budapest,Budapest Rákóczi út 1-3,"MagNet Bank, 1-3, Rákóczi út, Palotanegyed, Budapest, Közép-Magyarország, 1088, Magyarország",47.4941382,19.0605734,47.4983815,19.0404707,1.586485340446724 km,1.0882734520508166 km
52, Kupak Bar & Bistro,4.2,57,Dob utca 2,Pizza,Nemzetközi,Magyaros,NetPincér GO,SZÉP kártyás fizetés,Budapest,Budapest Dob utca 2,"Drum Café, 2, Dob utca, Erzsébetváros, Budapest, Közép-Magyarország, 1072, Magyarország",47.4961876,19.0588395,47.4983815,19.0404707,1.4053716543295465 km,0.8394648690588776 km
53, Pasta Culture Tésztabár,4.5,44,Október 6. utca 19,Pizza,Tészta,Olasz,NetPincér GO,SZÉP kártyás fizetés,Budapest,Budapest Október 6. utca 19,"The Selection, 19, Október 6. utca, Lipótváros, Budapest, Közép-Magyarország, 1051, Magyarország",47.5018193,19.0509007,47.4983815,19.0404707,0.8738543032873295 km,0.11483887182143553 km
54, Okay Italia Szent István krt. Expressz,4.5,82,Szent István körút 20,Pizza,Tészta,Olasz,NetPincér GO,SZÉP kártyás fizetés,Budapest,Budapest Szent István körút 20,"Okay Italia, 20, Szent István körút, Újlipótváros, Budapest, Közép-Magyarország, 1137, Magyarország",47.5117413,19.0527354,47.4983815,19.0404707,1.7492867391253457 km,1.2189168114580544 km
55, Pizza Me Dohány utca,4.5,22,Erzsébet körút 14,Olasz,Pizza,NetPincér GO,Érintkezésmentes kiszállítás,,Budapest,Budapest Erzsébet körút 14,"14, Erzsébet körút, Ligetváros, Erzsébetváros, VII. kerület, Közép-Magyarország, 1073, Magyarország",47.4989237,19.0696608,47.4983815,19.0404707,2.200168505266083 km,1.4862152950735978 km
56, Élelem Étterem Budapest,4.2,10,Garibaldi utca 5,Pizza,Hamburger,Pizza,Ételérzékenyeknek is,NetPincér GO,Budapest,Budapest Garibaldi utca 5,"Veggie nyers vegán bisztró, 5, Garibaldi utca, Lipótváros, Budapest, Közép-Magyarország, 1054, Magyarország",47.5048574,19.0472512,47.4983815,19.0404707,0.8828144157885531 km,0.4895943014987089 km
57, Pizza EATaliano - Pest,4.3,41,Vécsey u. 5,Olasz,Pizza,Készpénzes fizetés,SZÉP kártyás fizetés,,Budapest,Budapest Vécsey u. 5,"Bortársaság - Kossuth tér, 5, Vécsey utca, Lipótváros, Budapest, Közép-Magyarország, 1054, Magyarország",47.505647,19.0488386,47.4983815,19.0404707,1.024681373750218 km,0.5350397957440006 km
58, Den Haag Pizzéria,4.8,51,Dohány utca 5,Pizza,Algida,NetPincér GO,SZÉP kártyás fizetés,Érintkezésmentes kiszállítás,Budapest,Budapest Dohány utca 5,"KOLBice Dohány STR, 5/a, Dohány utca, Erzsébetváros, Budapest, Közép-Magyarország, 1074, Magyarország",47.4954114,19.0614601,47.4983815,19.0404707,1.6156161759081067 km,1.0489513320142745 km
59, Európa Pizzéria,,,Váci utca 45,Pizza,NetPincér GO,SZÉP kártyás fizetés,Érintkezésmentes kiszállítás,,Budapest,Budapest Váci utca 45,"Európa Kávézó, 45, Váci utca, Belváros, Budapest, Közép-Magyarország, 1056, Magyarország",47.4909367,19.0543783,47.4983815,19.0404707,1.3354112103205165 km,1.1544511281116037 km
60, CinCin Italia,4.8,26,Pozsonyi út 4,Pizza,Olasz,NetPincér GO,SZÉP kártyás fizetés,Érintkezésmentes kiszállítás,Budapest,Budapest Pozsonyi út 4,"4, Pozsonyi út, Újlipótváros, XIII. kerület, Budapest, Közép-Magyarország, 1137, Magyarország",47.514372,19.0486025,47.4983815,19.0404707,1.880420801197196 km,1.5003787604530072 km
61, PizzaBár 13,4.7,46,Hegedűs Gyula utca 32,Pizza,Algida,NetPincér GO,SZÉP kártyás fizetés,Érintkezésmentes kiszállítás,Budapest,Budapest Hegedűs Gyula utca 32,"32, Hegedűs Gyula utca, Újlipótváros, XIII. kerület, Budapest, Közép-Magyarország, 1136, Magyarország",47.5165438,19.0553716,47.4983815,19.0404707,2.310331696875938 km,1.7811495180182129 km
62, Basilico,5,6,Kőfaragó utca 15,Pizza,NetPincér GO,SZÉP kártyás fizetés,Érintkezésmentes kiszállítás,,Budapest,Budapest Kőfaragó utca 15,"Anomália, 15, Kőfaragó utca, Palotanegyed, Budapest, Közép-Magyarország, 1085, Magyarország",47.4933371,19.0690522,47.4983815,19.0404707,2.2254302050788795 km,1.6545791153420923 km
64, Ígykerek,4.2,10,Szent István park 26,Olasz,Pizza,NetPincér GO,SZÉP kártyás fizetés,Érintkezésmentes kiszállítás,Budapest,Budapest Szent István park 26,"Szent István Park Gyógyszertár, 26, Szent István park, Újlipótváros, Budapest, Közép-Magyarország, 1137, Magyarország",47.518635,19.0520367,47.4983815,19.0404707,2.4144843035049592 km,1.9748625703341471 km
65, Impasto Pizza,4.9,63,Mester utca 40-44,Pizza,Olasz,NetPincér GO,Érintkezésmentes kiszállítás,,Budapest,Budapest Mester utca 40-44,"Kínai Áruház, 40-44, Mester utca, Középső-Ferencváros, Budapest, Közép-Magyarország, 1095, Magyarország",47.47906,19.07323,47.4983815,19.0404707,3.2725026689790107 km,2.9882054033118908 km
66, Pizza Fabbrica,4.5,97,Garay utca 30,Hamburger,Magyaros,Olasz,Pizza,Készpénzes fizetés,Budapest,Budapest Garay utca 30,"30, Garay utca, Ligetváros, Erzsébetváros, VII. kerület, Közép-Magyarország, 1076, Magyarország",47.502362,19.0827824,47.4983815,19.0404707,3.2184637560274996 km,2.463365468852549 km
67, Casa Mia Trattoria,4.2,12,Pozsonyi út 37,Olasz,Pizza,Készpénzes fizetés,SZÉP kártyás fizetés,,Budapest,Budapest Pozsonyi út 37,"Pozsonyi út, Újlipótváros, XIII. kerület, Budapest, Közép-Magyarország, 1137, Magyarország",47.5154445,19.0495356,47.4983815,19.0404707,2.016244466333202 km,1.6157260543982652 km
68, Bíbor Pizza,4.5,44,Népfürdő utca 17,Pizza,Készpénzes fizetés,,,,Budapest,Budapest Népfürdő utca 17,"17/e, Népfürdő utca, Vizafogó, XIII. kerület, Közép-Magyarország, 1138, Magyarország",47.5316225,19.0589072,47.4983815,19.0404707,3.9480488429433525 km,3.4767937140415888 km
69, M35 Vendéglő,4.6,45,Márton utca 35,Olasz,Magyaros,Hamburger,Amerikai,Pizza,Budapest,Budapest Márton utca 35,"M35, 35, Márton utca, Középső-Ferencváros, Budapest, Közép-Magyarország, 1094, Magyarország",47.4804349,19.0821646,47.4983815,19.0404707,3.722017991530342 km,3.317290518633111 km
70, Boulevard Kitchen,4.2,7,Erzsébet körút 12,Pizza,NetPincér GO,SZÉP kártyás fizetés,Érintkezésmentes kiszállítás,,Budapest,Budapest Erzsébet körút 12,"10-12, Erzsébet körút, Ligetváros, Erzsébetváros, VII. kerület, Közép-Magyarország, 1073, Magyarország",47.4987101,19.0698424,47.4983815,19.0404707,2.213331290057507 km,1.5034436615730813 km
73, Trattoria Pizzeria Monza,4.1,7,Krúdy Gyula utca 2,Tészta,Pizza,NetPincér GO,SZÉP kártyás fizetés,Érintkezésmentes kiszállítás,Budapest,Budapest Krúdy Gyula utca 2,"Don Leone, 2, Krúdy Gyula utca, Palotanegyed, Budapest, Közép-Magyarország, 1088, Magyarország",47.4901869,19.0668324,47.4983815,19.0404707,2.1853720807611423 km,1.732772379093565 km
74, POMPÁS Pizza Napoletana - Thaly Kálmán u.,4.9,97,Thaly Kálmán utca 52,Pizza,NetPincér GO,SZÉP kártyás fizetés,Érintkezésmentes kiszállítás,,Budapest,Budapest Thaly Kálmán utca 52,"52, Thaly Kálmán utca, Középső-Ferencváros, IX. kerület, Közép-Magyarország, 1096, Magyarország",47.48185255,19.07762889429019,47.4983815,19.0404707,3.349328045822475 km,2.9629714001958556 km
75, Club '93 Pizzéria,4.5,2,Vas utca 2,Pizza,NetPincér GO,SZÉP kártyás fizetés,Érintkezésmentes kiszállítás,,Budapest,Budapest Vas utca 2,"Színház- és Filmművészeti Egyetem, 2/c, Vas utca, Palotanegyed, Budapest, Közép-Magyarország, 1088, Magyarország",47.4951628,19.066506947162367,47.4983815,19.0404707,1.9941559048010151 km,1.3882640310273093 km
76, Da Mario Budapest,,,Vécsey utca 3,Pizza,Tészta,Olasz,NetPincér GO,SZÉP kártyás fizetés,Budapest,Budapest Vécsey utca 3,"Da Mario, 3, Vécsey utca, Lipótváros, Budapest, Közép-Magyarország, 1054, Magyarország",47.505243,19.049433,47.4983815,19.0404707,1.0187726535384314 km,0.4839131571813348 km
77, Pivo & Bár,,,Madách Imre út 13-14,Alkoholos italok,Hamburger,Pizza,NetPincér GO,SZÉP kártyás fizetés,Budapest,Budapest Madách Imre út 13-14,"Pivo and Bar, 13-14, Madách Imre út, Gozsdu Udvar, Erzsébetváros, VII. kerület, Budapest, Közép-Magyarország, 1075, Magyarország",47.498448,19.0588512,47.4983815,19.0404707,1.3849138572310538 km,0.7103815524931789 km
78, Trattoria La Coppola,4.5,43,Károlyi utca 19,Pizza,Olasz,NetPincér GO,SZÉP kártyás fizetés,Érintkezésmentes kiszállítás,Budapest,Budapest Károlyi utca 19,"La Coppola, 19, Károlyi utca, Belváros, Budapest, Közép-Magyarország, 1053, Magyarország",47.4914492,19.0578404,47.4983815,19.0404707,1.5188971314480084 km,1.2014922272152793 km
79, IL Pastaio Ristorante,5,1,Vörösmarty tér 2,Pizza,Olasz,NetPincér GO,SZÉP kártyás fizetés,Érintkezésmentes kiszállítás,Budapest,Budapest Vörösmarty tér 2,"2, Vörösmarty tér, Belváros, V. kerület, Közép-Magyarország, 1051, Magyarország",47.49609,19.0512329,47.4983815,19.0404707,0.8499852548441458 km,0.5428966357681266 km
80, Trattoria Za-Za,4.3,109,Ráday utca 16,Olasz,Magyaros,Pizza,Készpénzes fizetés,SZÉP kártyás fizetés,Budapest,Budapest Ráday utca 16,"Trattoria, 16, Ráday utca, Belső-Ferencváros, Budapest, Közép-Magyarország, 1092, Magyarország",47.4875924,19.0631314,47.4983815,19.0404707,2.0867842083003314 km,1.7751049637948493 km
82, Ape Regina Restaurant,4.1,7,Podmaniczky utca 18,Olasz,Tészta,Pizza,NetPincér GO,SZÉP kártyás fizetés,Budapest,Budapest Podmaniczky utca 18,"Ape Regina, 18, Podmaniczky utca, Terézváros, Budapest, Közép-Magyarország, 1065, Magyarország",47.5086038,19.057331,47.4983815,19.0404707,1.7044555814675393 km,1.0111210841484044 km
83, Facebistro,5,4,Hollán Ernő utca 13-15.,Olasz,Magyaros,Pizza,NetPincér GO,SZÉP kártyás fizetés,Budapest,Budapest Hollán Ernő utca 13-15.,"13-15, Hollán Ernő utca, Újlipótváros, XIII. kerület, Budapest, Közép-Magyarország, 1136, Magyarország",47.5148216,19.0505977,47.4983815,19.0404707,1.9806471848104665 km,1.546154330152603 km
84, Verne étterem,4.2,169,Váci utca 60,Magyaros,Nemzetközi,Pizza,Készpénzes fizetés,SZÉP kártyás fizetés,Budapest,Budapest Váci utca 60,"Verne, 60, Váci utca, Belváros, Budapest, Közép-Magyarország, 1056, Magyarország",47.4898878,19.0558601,47.4983815,19.0404707,1.4954891434327544 km,1.2995017552078127 km
85, Verne Prémium Pizza,5,1,Váci utca 60,Cukrászda,Pizza,Készpénzes fizetés,,,Budapest,Budapest Váci utca 60,"Verne, 60, Váci utca, Belváros, Budapest, Közép-Magyarország, 1056, Magyarország",47.4898878,19.0558601,47.4983815,19.0404707,1.4954891434327544 km,1.2995017552078127 km
86, Trattoria Toscana,4.7,98,Belgrád rakpart 13,Pizza,Olasz,Ételérzékenyeknek is,Készpénzes fizetés,SZÉP kártyás fizetés,Budapest,Budapest Belgrád rakpart 13,"L'enoteca, 13-15, Belgrád rakpart, Belváros, Budapest, Közép-Magyarország, 1056, Magyarország",47.4886851,19.0545842,47.4983815,19.0404707,1.514334027104914 km,1.4004121824495017 km
87, 15 Perc Pizza Expressz,4,391,Dessewffy utca 5,Olasz,Pizza,Készpénzes fizetés,,,Budapest,Budapest Dessewffy utca 5,"15 Perc Pizza, 5, Dessewffy utca, Terézváros, Budapest, Közép-Magyarország, 1066, Magyarország",47.5041922,19.0556617,47.4983815,19.0404707,1.3142607404295563 km,0.5518839870433877 km
88, Belli Di Mamma,4.7,31,Akácfa utca 45,Pizza,NetPincér GO,SZÉP kártyás fizetés,Érintkezésmentes kiszállítás,,Budapest,Budapest Akácfa utca 45,"Belli di Mamma, 45, Akácfa utca, Ligetváros, Erzsébetváros, VII. kerület, Közép-Magyarország, 1072, Magyarország",47.5001941,19.0657507,47.4983815,19.0404707,1.9153425766180845 km,1.1777189587645263 km
89, ROOM Biliárd & Bisztró,4.6,24,Gogol utca 22,Hamburger,Pizza,Készpénzes fizetés,,,Budapest,Budapest Gogol utca 22,"22, Gogol utca, Újlipótváros, XIII. kerület, Közép-Magyarország, 1133, Magyarország",47.5204639,19.0578764,47.4983815,19.0404707,2.783321433439855 km,2.249589401034558 km
90, Kajaműhely Étterem és Pizzéria,3.6,203,Fehér út 10,Magyaros,Pizza,Készpénzes fizetés,SZÉP kártyás fizetés,,Budapest,Budapest Fehér út 10,"Mineralholding Kft., 10, Fehér út, Ligettelek, Budapest, Közép-Magyarország, 1106, Magyarország",47.5003088,19.138827957802093,47.4983815,19.0404707,7.413775586765194 km,6.681143540001907 km
91, Pizza Escobar,3.8,41,Wesselényi utca 53-57,Olasz,Magyaros,Hamburger,Pizza,Készpénzes fizetés,Budapest,Budapest Wesselényi utca 53-57,"Wesselényi utca, Pacsirtatelep, XX. kerület, Budapest, Közép-Magyarország, 1204, Magyarország",47.4313546,19.1252675,47.4983815,19.0404707,9.818623151193897 km,9.58558242430677 km
92, Pizza Tú Night,4.2,7,Szondi utca 42,Magyaros,Pizza,Készpénzes fizetés,,,Budapest,Budapest Szondi utca 42,"42, Szondi utca, Izzó lakótelep, Megyer, IV. kerület, Budapest, Közép-Magyarország, 1044, Magyarország",47.587096450000004,19.092423726048175,47.4983815,19.0404707,10.610598372892694 km,10.095969303231568 km
93, Lénia Restaurant,3,2,Szondi utca 42,Magyaros,Hamburger,Pizza,Készpénzes fizetés,,Budapest,Budapest Szondi utca 42,"42, Szondi utca, Izzó lakótelep, Megyer, IV. kerület, Budapest, Közép-Magyarország, 1044, Magyarország",47.587096450000004,19.092423726048175,47.4983815,19.0404707,10.610598372892694 km,10.095969303231568 km
94, Street Magic - Éjszakai,3.6,160,Lajos utca 98,Pizza,Mexikói,Amerikai,Hamburger,Készpénzes fizetés,Budapest,Budapest Lajos utca 98,"Vidocq Étterem, 98, Lajos utca, Óbuda, III. kerület, Budapest, Közép-Magyarország, 1036, Magyarország",47.5330609,19.0407838,47.4983815,19.0404707,3.855758852990389 km,3.6427092702598696 km
95, Ragazzi Pizza & Burger - Éjszakai,3.9,109,Lajos utca 98,Magyaros,Hamburger,Pizza,Készpénzes fizetés,,Budapest,Budapest Lajos utca 98,"Vidocq Étterem, 98, Lajos utca, Óbuda, III. kerület, Budapest, Közép-Magyarország, 1036, Magyarország",47.5330609,19.0407838,47.4983815,19.0404707,3.855758852990389 km,3.6427092702598696 km
96, Pizza Nepper éjszakai,,,Vörösmarty tér 2,Pizza,Készpénzes fizetés,SZÉP kártyás fizetés,,,Budapest,Budapest Vörösmarty tér 2,"2, Vörösmarty tér, Belváros, V. kerület, Közép-Magyarország, 1051, Magyarország",47.49609,19.0512329,47.4983815,19.0404707,0.8499852548441458 km,0.5428966357681266 km
97, Pizza & Minden 1790,4.6,161,Haris köz 4,Olasz,Pizza,Készpénzes fizetés,,,Budapest,Budapest Haris köz 4,"4, Haris köz, Belváros, V. kerület, Budapest, Közép-Magyarország, 1052, Magyarország",47.493632500000004,19.05372194543619,47.4983815,19.0404707,1.1294803965843672 km,0.8534265815348645 km
98, Pörkölő extra,4.3,109,Üllői út 121,Pizza,Reggelizőhely,Magyaros,Reggelizőhely,Készpénzes fizetés,Budapest,Budapest Üllői út 121,"Nagyvárad Gyógyszertár, 121, Üllői út, Középső-Ferencváros, Budapest, Közép-Magyarország, 1091, Magyarország",47.4791363,19.0883315,47.4983815,19.0404707,4.193694969751101 km,3.7604397915647234 km
99, Pizza Caffe Donna,4.7,170,Ráday utca 54,Pizza,Magyaros,Hamburger,Olasz,Algida,Budapest,Budapest Ráday utca 54,"CsokiBolt, 54, Ráday utca, Belső-Ferencváros, Budapest, Közép-Magyarország, 1092, Magyarország",47.4821377,19.0669747,47.4983815,19.0404707,2.692715328202953 km,2.442565617506169 km
100, Pizza & Beer,4.7,19,Akácfa utca 51,Pizza,NetPincér GO,SZÉP kártyás fizetés,Érintkezésmentes kiszállítás,,Budapest,Budapest Akácfa utca 51,"Liebling, 51, Akácfa utca, Ligetváros, Erzsébetváros, VII. kerület, Közép-Magyarország, 1073, Magyarország",47.5006454,19.0650939,47.4983815,19.0404707,1.8722134879157515 km,1.1258830286849122 km
101, Gold Kávézó & Bár,4.1,59,Hegedűs Gyula utca 23,Magyaros,Alkoholos italok,Pizza,NetPincér GO,SZÉP kártyás fizetés,Budapest,Budapest Hegedűs Gyula utca 23,"23, Hegedűs Gyula utca, Újlipótváros, XIII. kerület, Budapest, Közép-Magyarország, 1136, Magyarország",47.5145291,19.0541143,47.4983815,19.0404707,2.0687062968461714 km,1.5423777394109137 km
102, Mr. Slice Pizza,,,Dob utca 19,Pizza,NetPincér GO,SZÉP kártyás fizetés,Érintkezésmentes kiszállítás,,Budapest,Budapest Dob utca 19,"Ellátóház/The Hive Party Hostel, 19, Dob utca, Erzsébetváros, Budapest, Közép-Magyarország, 1074, Magyarország",47.4978864,19.0610386,47.4983815,19.0404707,1.5506911564580683 km,0.8865390283051953 km
103, Salt and Pepper,4.8,923,Antall József utca 24,Pizza,Hamburger,Algida,Készpénzes fizetés,SZÉP kártyás fizetés,Debrecen,Debrecen Antall József utca 24,"Antall József utca, Miklóskapu, Debrecen, Debreceni járás, Hajdú-Bihar megye, Észak-Alföld, Alföld és Észak, 4025, Magyarország",47.5236162,21.6233505,47.531399,21.6259782,0.8876373874478637 km,193.83606878374158 km
104, HappyHOT Pizza DEBRECEN,4.6,421,Bethlen utca 46,Olasz,Magyaros,Pizza,Készpénzes fizetés,SZÉP kártyás fizetés,Debrecen,Debrecen Bethlen utca 46,"46, Bethlen utca, Péterfia, Debrecen, Debreceni járás, Hajdú-Bihar megye, Észak-Alföld, Alföld és Észak, 4026, Magyarország",47.536148850000004,21.6214221,47.531399,21.6259782,0.6297369541119756 km,193.69094606392002 km
105, Piedone Pizzéria,3.9,206,Baross Gábor utca 27,Olasz,Magyaros,Hamburger,Grill,Pizza,Debrecen,Debrecen Baross Gábor utca 27,"Baross Gábor utca, Kandia, Debrecen, Debreceni járás, Hajdú-Bihar megye, Észak-Alföld, Alföld és Észak, 4029, Magyarország",47.5300366,21.6376453,47.531399,21.6259782,0.8914907305111487 km,194.9112600525048 km
106, Casanova Pizza,3.5,112,Baross Gábor utca 27,Olasz,Magyaros,Mexikói,Hamburger,Amerikai,Debrecen,Debrecen Baross Gábor utca 27,"Baross Gábor utca, Kandia, Debrecen, Debreceni járás, Hajdú-Bihar megye, Észak-Alföld, Alföld és Észak, 4029, Magyarország",47.5300366,21.6376453,47.531399,21.6259782,0.8914907305111487 km,194.9112600525048 km
107, Station Bistro,4.7,385,Petőfi tér 10,Olasz,Hamburger,Amerikai,Pizza,Készpénzes fizetés,Debrecen,Debrecen Petőfi tér 10,"Petőfi presszó, 10, Petőfi tér, Ispotály, Debrecen, Debreceni járás, Hajdú-Bihar megye, Észak-Alföld, Alföld és Észak, 4025, Magyarország",47.5210074,21.6268256,47.531399,21.6259782,1.1571105243718227 km,194.09903215487742 km
108, Kalória Bisztró - Kishegyesi út,4.5,8,Kishegyesi út 1-11,Magyaros,Görög,Pizza,NetPincér GO,SZÉP kártyás fizetés,Debrecen,Debrecen Kishegyesi út 1-11,"Tesco Extra, 1-11, Kishegyesi út, Széchenyikert, Debrecen, Debreceni járás, Hajdú-Bihar megye, Észak-Alföld, Alföld és Észak, 4031, Magyarország",47.53107985,21.60916088396663,47.531399,21.6259782,1.2668218137012264 km,192.76643912404901 km
109, Pizza Hut Debrecen,3.9,306,Péterfia utca 18,Pizza,Készpénzes fizetés,,,,Debrecen,Debrecen Péterfia utca 18,"McDonald's, 18, Péterfia utca, Péterfia, Debrecen, Debreceni járás, Hajdú-Bihar megye, Észak-Alföld, Alföld és Észak, 4026, Magyarország",47.5353353,21.6244344,47.531399,21.6259782,0.4528170388603348 km,193.91743914821288 km
110, Pop Art Café,4.7,157,Bihari utca 2,Pizza,Hamburger,Magyaros,Készpénzes fizetés,,Debrecen,Debrecen Bihari utca 2,"Bihari utca, Bozzaytelep, Debrecen, Debreceni járás, Hajdú-Bihar megye, Észak-Alföld, Alföld és Észak, 4030, Magyarország",47.5177664,21.6633209,47.531399,21.6259782,3.1946643851415457 km,196.84988475156086 km
111, Roy Cafe,4.7,84,Poroszlay út 55,Magyaros,Nemzetközi,Pizza,NetPincér GO,SZÉP kártyás fizetés,Debrecen,Debrecen Poroszlay út 55,"Poroszlay út, Nagyerdő, Debrecen, Debreceni járás, Hajdú-Bihar megye, Észak-Alföld, Alföld és Észak, 4032, Magyarország",47.5444242,21.6241307,47.531399,21.6259782,1.4548238852804465 km,193.90040364767785 km
112, Pálma Pub,4.6,66,Simonyi utca 44,Olasz,Magyaros,Grill,Pizza,Grill,Debrecen,Debrecen Simonyi utca 44,"Simonyi út, Nagyerdő, Debrecen, Debreceni járás, Hajdú-Bihar megye, Észak-Alföld, Alföld és Észak, 4032, Magyarország",47.5457523,21.6267052,47.531399,21.6259782,1.5967575208467644 km,194.09549189546541 km
114, Döner-Kebab Pizzéria,4.7,522,Mikepércsi út 10,Pizza,Magyaros,Görög,Török,Készpénzes fizetés,Debrecen,Debrecen Mikepércsi út 10,"Mikepércsi út, Epreskert, Debrecen, Debreceni járás, Hajdú-Bihar megye, Észak-Alföld, Alföld és Észak, 4030, Magyarország",47.5019142,21.6309493,47.531399,21.6259782,3.2994604811186194 km,194.43205673808913 km
116, Max Bisztró,4.4,7,Balmazújvárosi út 15,Magyaros,Hamburger,Grill,Pizza,NetPincér GO,Debrecen,Debrecen Balmazújvárosi út 15,"15, Balmazújvárosi út, Tócóliget, Debrecen, Debreceni járás, Hajdú-Bihar megye, Észak-Alföld, Alföld és Észak, 4031, Magyarország",47.543484,21.5908492,47.531399,21.6259782,2.966584834583112 km,191.39416288295132 km
117, Király Pizza Debrecen,4.3,208,Batthyány utca 4,Magyaros,Hamburger,Pizza,Készpénzes fizetés,,Debrecen,Debrecen Batthyány utca 4,"Batthyány utca, Belváros, Debrecen, Debreceni járás, Hajdú-Bihar megye, Észak-Alföld, Alföld és Észak, 4024, Magyarország",47.5280455,21.6285534,47.531399,21.6259782,0.4202585969935315 km,194.2267451263891 km
118, Manna Étterem,4.7,123,Damjanich utca 22,Magyaros,Pizza,Készpénzes fizetés,,,Debrecen,Debrecen Damjanich utca 22,"Pizza Hut, 22, Damjanich utca, Óváros, Debrecen, Debreceni járás, Hajdú-Bihar megye, Észak-Alföld, Alföld és Észak, 4028, Magyarország",47.5434057,21.6327927,47.531399,21.6259782,1.430121668359304 km,194.55155676903715 km
119, Pinocchio,3.5,2,Pallagi út 7,Pizza,NetPincér GO,SZÉP kártyás fizetés,Érintkezésmentes kiszállítás,,Debrecen,Debrecen Pallagi út 7,"Pallagi út, Egyetemváros, Debrecen, Debreceni járás, Hajdú-Bihar megye, Észak-Alföld, Alföld és Észak, 4032, Magyarország",47.5742306,21.6306645,47.531399,21.6259782,4.775132016319568 km,194.44788728992296 km
120," Upps a la Pasta, Pizza & Bar",4.2,47,Egyetem tér 1,Nemzetközi,Tészta,Pizza,Tészta,Készpénzes fizetés,Debrecen,Debrecen Egyetem tér 1,"Koli Klub, 1, Egyetem tér, Sestakert, Debrecen, Debreceni járás, Hajdú-Bihar megye, Észak-Alföld, Alföld és Észak, 4032, Magyarország",47.5556013,21.6235573,47.531399,21.6259782,2.697011172750957 km,193.87163994618447 km
121, Pizza Piccante,4.5,7,Csapó utca 95,Pizza,Készpénzes fizetés,SZÉP kártyás fizetés,,,Debrecen,Debrecen Csapó utca 95,"Csapó utca, Burgundia, Debrecen, Debreceni járás, Hajdú-Bihar megye, Észak-Alföld, Alföld és Észak, 4029, Magyarország",47.5369239,21.6375522,47.531399,21.6259782,1.0661920553032118 km,194.9057187264463 km
122, Full Pizza,4.5,229,Sarló utca 2,Pizza,Készpénzes fizetés,SZÉP kártyás fizetés,,,Debrecen,Debrecen Sarló utca 2,"Valhalla Söröző, 2, Sarló utca, Sámsonikert, Debrecen, Debreceni járás, Hajdú-Bihar megye, Észak-Alföld, Alföld és Észak, 4028, Magyarország",47.5382002,21.6397525,47.531399,21.6259782,1.2835118769096603 km,195.07197769317185 km
123, Pomodoro Pizza,4.3,178,Simonffy utca 1,Pizza,Készpénzes fizetés,,,,Debrecen,Debrecen Simonffy utca 1,"Simonffy utca, Belváros, Debrecen, Debreceni járás, Hajdú-Bihar megye, Észak-Alföld, Alföld és Észak, 4025, Magyarország",47.5284937,21.6207329,47.531399,21.6259782,0.5102387575713235 km,193.63779294162885 km
124, Pizzaguru,4.8,228,Oskola utca 8,Saláta,Tészta,Leves,Pizza,Saláta,Szeged,Szeged Oskola utca 8,"8, Oskola utca, Franciahögy lakópark, Belváros, Szeged, Szegedi járás, Csongrád-Csanád megye, Dél-Alföld, Alföld és Észak, 6720, Magyarország",46.2506036,20.1499995,46.2546312,20.1486016,0.4604867968608079 km,162.32102095368006 km
125, Duna Döner Szeged,4.7,450,Oskola utca 23,Pizza,Hamburger,Grill,Török,NetPincér GO,Szeged,Szeged Oskola utca 23,"Duna Döner, 23, Oskola utca, Franciahögy lakópark, Belváros, Szeged, Szegedi járás, Csongrád-Csanád megye, Dél-Alföld, Alföld és Észak, 6720, Magyarország",46.250014,20.1491409,46.2546312,20.1486016,0.5149126536756814 km,162.34359773884356 km
126, Lucky Pizzéria,4.8,156,Kálvária tér 32,Olasz,Pizza,Készpénzes fizetés,SZÉP kártyás fizetés,,Szeged,Szeged Kálvária tér 32,"Kálvária Cukrászda, 32, Kálvária tér, Franciahögy lakópark, Móraváros, Szeged, Szegedi járás, Csongrád-Csanád megye, Dél-Alföld, Alföld és Észak, 6725, Magyarország",46.2524537,20.1341121,46.2546312,20.1486016,1.143184076574886 km,161.52143600941287 km
127, Napfény Street Food,4.6,10,Szabadkai út 7,Pizza,Hamburger,Készpénzes fizetés,,,Szeged,Szeged Szabadkai út 7,"Tesco, 7, Szabadkai út, Vadaspark lakópark, Klebelsbergtelep, Szeged, Szegedi járás, Csongrád-Csanád megye, Dél-Alföld, Alföld és Észak, 6725, Magyarország",46.2442997,20.1210093,46.2546312,20.1486016,2.4178974606515427 km,161.7978405376877 km
128, Pizzamonster,4.7,546,Sárosi utca 2,Amerikai,Hamburger,Olasz,Pizza,Készpénzes fizetés,Szeged,Szeged Sárosi utca 2,"Diófa Söröző, 2, Sárosi utca, Gedó, Északi városrész, Szeged, Szegedi járás, Csongrád-Csanád megye, Dél-Alföld, Alföld és Észak, 6724, Magyarország",46.2692854,20.1502093,46.2546312,20.1486016,1.6336176515180132 km,160.54727386467178 km
129, American Chicken Fast Food & Pizza,4.7,557,Fésű utca 6,Amerikai,Hamburger,Pizza,Készpénzes fizetés,SZÉP kártyás fizetés,Szeged,Szeged Fésű utca 6,"Fésű utca, Lőtér lakópark, Odessza, Szeged, Szegedi járás, Csongrád-Csanád megye, Dél-Alföld, Alföld és Észak, 6726, Magyarország",46.243248949999995,20.159296324923297,46.2546312,20.1486016,1.5102721876826986 km,163.39010268715865 km
130, Pizzafaló Szeged,4.4,67,Vedres utca 14,Cukrászda,Hamburger,Olasz,Pizza,Készpénzes fizetés,Szeged,Szeged Vedres utca 14,"Vedres Utcai Óvoda és bölcsőde, 14, Vedres utca, Odessza, Szeged, Szegedi járás, Csongrád-Csanád megye, Dél-Alföld, Alföld és Észak, 6726, Magyarország",46.245335,20.156536253562052,46.2546312,20.1486016,1.2008984374195895 km,163.08198977622968 km
131, Pizza DiAngelo,4.6,212,Csongrádi sugárút 8/B,Pizza,Készpénzes fizetés,SZÉP kártyás fizetés,,,Szeged,Szeged Csongrádi sugárút 8/B,"Pizza Hub, 8/B, Csongrádi sugárút, Franciahögy lakópark, Belváros, Szeged, Szegedi járás, Csongrád-Csanád megye, Dél-Alföld, Alföld és Észak, 6721, Magyarország",46.2601442,20.1505599,46.2546312,20.1486016,0.6311325608131668 km,161.43223098544425 km
132, Turbó Pizza,4.7,258,Tisza Lajos Körút 59,Olasz,Pizza,Készpénzes fizetés,,,Szeged,Szeged Tisza Lajos Körút 59,"Bagolyvárium (Körúti Antikvárium), 59, Tisza Lajos körút, Franciahögy lakópark, Belváros, Szeged, Szegedi járás, Csongrád-Csanád megye, Dél-Alföld, Alföld és Észak, 6722, Magyarország",46.2532347,20.1452516,46.2546312,20.1486016,0.3013661555644085 km,161.88271177573876 km
133, Happy Hot Pizza Szeged,4.8,235,Makkosházi Körút 23,Pizza,Készpénzes fizetés,SZÉP kártyás fizetés,,,Szeged,Szeged Makkosházi Körút 23,"Happy Hot Pizzéria, 23, Makkosházi körút, Gedó, Makkosház, Szeged, Szegedi járás, Csongrád-Csanád megye, Dél-Alföld, Alföld és Észak, 6723, Magyarország",46.272812349999995,20.152104483629444,46.2546312,20.1486016,2.038915736305919 km,160.28726544115335 km
134, Margaréta Pizzéria,4.6,72,Horváth Mihály utca 7,Pizza,SZÉP kártyás fizetés,,,,Szeged,Szeged Horváth Mihály utca 7,"Margaréta Pizzéria, 7, Horváth Mihály utca, Franciahögy lakópark, Belváros, Szeged, Szegedi járás, Csongrád-Csanád megye, Dél-Alföld, Alföld és Észak, 6720, Magyarország",46.2551402,20.1506548,46.2546312,20.1486016,0.1681220180428386 km,161.91349085263394 km
135, Pizza e Pasta,4.5,72,Klauzál Tér 6,Pizza,Olasz,Készpénzes fizetés,SZÉP kártyás fizetés,,Szeged,Szeged Klauzál Tér 6,"6, Klauzál tér, Franciahögy lakópark, Belváros, Szeged, Szegedi járás, Csongrád-Csanád megye, Dél-Alföld, Alföld és Észak, 6720, Magyarország",46.2520012,20.1477129,46.2546312,20.1486016,0.30026516937788045 km,162.09743706028905 km
136, Zero Street Food,4.5,97,Jókai utca 1,Pizza,Amerikai,Hamburger,Ételérzékenyeknek is,Készpénzes fizetés,Szeged,Szeged Jókai utca 1,"Burger King, 1, Jókai utca, Franciahögy lakópark, Belváros, Szeged, Szegedi járás, Csongrád-Csanád megye, Dél-Alföld, Alföld és Észak, 6720, Magyarország",46.2494411,20.1457438,46.2546312,20.1486016,0.6175671862367735 km,162.26495639141714 km
137, Monkey's Bistro - Szeged,4.5,51,Pille utca 15,Magyaros,Hamburger,Pizza,Készpénzes fizetés,,Szeged,Szeged Pille utca 15,"Pizza Monkey, 15, Pille utca, Tömörkény-üdülőtelep, Felsőváros, Szeged, Szegedi járás, Csongrád-Csanád megye, Dél-Alföld, Alföld és Észak, 6723, Magyarország",46.25943445,20.17038344767996,46.2546312,20.1486016,1.7622884327848802 km,162.2897160561285 km
138, NagyÁ Bisztró,4.6,5,Jókai utca 1,Magyaros,Olasz,Pizza,Tészta,NetPincér GO,Szeged,Szeged Jókai utca 1,"Burger King, 1, Jókai utca, Franciahögy lakópark, Belváros, Szeged, Szegedi járás, Csongrád-Csanád megye, Dél-Alföld, Alföld és Észak, 6720, Magyarország",46.2494411,20.1457438,46.2546312,20.1486016,0.6175671862367735 km,162.26495639141714 km
139, Görög Pizzéria,4.7,101,Fürj utca 29,Magyaros,Pizza,Készpénzes fizetés,,,Szeged,Szeged Fürj utca 29,"Görög Pizzéria, 29, Fürj utca, Tömörkény-üdülőtelep, Újszeged, Szeged, Szegedi járás, Csongrád-Csanád megye, Dél-Alföld, Alföld és Észak, 6726, Magyarország",46.2513936,20.1721549,46.2546312,20.1486016,1.8514943974042366 km,163.12453038830367 km
140, Pizza Király Szeged,4.7,34,Fő fasor 69/A,Magyaros,Pizza,Készpénzes fizetés,SZÉP kártyás fizetés,,Szeged,Szeged Fő fasor 69/A,"Fő fasor, Hársfa lakópark, Marostői kiskertek, Szeged, Szegedi járás, Csongrád-Csanád megye, Dél-Alföld, Alföld és Észak, 6726, Magyarország",46.2376377,20.1927028,46.2546312,20.1486016,3.8903944440874967 km,165.25436205084415 km
141, Pizza Love,4.8,128,József Attila sugárút 128,Olasz,Pizza,Készpénzes fizetés,SZÉP kártyás fizetés,,Szeged,Szeged József Attila sugárút 128,"József Attila sugárút, Gedó, Tarján, Szeged, Szegedi járás, Csongrád-Csanád megye, Dél-Alföld, Alföld és Észak, 6723, Magyarország",46.275626,20.1653387,46.2546312,20.1486016,2.6666609900988623 km,160.55137879895648 km
142, Zed Slice,4.9,87,Petőfi Sándor sugárút 24,Cukrászda,Pizza,Készpénzes fizetés,,,Szeged,Szeged Petőfi Sándor sugárút 24,"Print ink, 24, Petőfi Sándor sugárút, Franciahögy lakópark, Móraváros, Szeged, Szegedi járás, Csongrád-Csanád megye, Dél-Alföld, Alföld és Észak, 6722, Magyarország",46.2482731,20.1409602,46.2546312,20.1486016,0.9201574717222359 km,162.1895111612606 km
143, Boss Pizzéria és Hamburger Bár,5,1,Dorozsmai út 191,Pizza,Készpénzes fizetés,SZÉP kártyás fizetés,,,Szeged,Szeged Dorozsmai út 191,"Dorozsmai út, Iparváros, Szeged, Szegedi járás, Csongrád-Csanád megye, Dél-Alföld, Alföld és Észak, 6728, Magyarország",46.2668937,20.1075888,46.2546312,20.1486016,3.44330518928121 km,159.10532860448365 km
144, Rudi & Fickó,4.8,26,Oroszlán utca 4,Pizza,NetPincér GO,SZÉP kártyás fizetés,Érintkezésmentes kiszállítás,,Szeged,Szeged Oroszlán utca 4,"4, Oroszlán utca, Franciahögy lakópark, Belváros, Szeged, Szegedi járás, Csongrád-Csanád megye, Dél-Alföld, Alföld és Észak, 6720, Magyarország",46.2511052,20.1492005,46.2546312,20.1486016,0.3946482834349456 km,162.2416253542448 km
145, Rustica Pizzéria,4.6,40,Szentháromság utca 6,Nemzetközi,Pizza,Készpénzes fizetés,SZÉP kártyás fizetés,,Szeged,Szeged Szentháromság utca 6,"Bohém Tanya, 6, Szentháromság utca, Franciahögy lakópark, Belváros, Szeged, Szegedi járás, Csongrád-Csanád megye, Dél-Alföld, Alföld és Észak, 6722, Magyarország",46.2471009,20.1455791,46.2546312,20.1486016,0.8688832955636241 km,162.48250984792776 km
146, Campus ízművek és látványpizzéria,4.6,13,Vitéz utca 24,Pizza,NetPincér GO,SZÉP kártyás fizetés,Érintkezésmentes kiszállítás,,Szeged,Szeged Vitéz utca 24,"Campus Beer&More, 24, Vitéz utca, Franciahögy lakópark, Belváros, Szeged, Szegedi járás, Csongrád-Csanád megye, Dél-Alföld, Alföld és Észak, 6722, Magyarország",46.2475652,20.142583257391493,46.2546312,20.1486016,0.9122922357742583 km,162.32078684880187 km
147, Mamma Mia Pizzéria,4.8,105,Csongrádi Sugárút 78,Pizza,Készpénzes fizetés,,,,Szeged,Szeged Csongrádi Sugárút 78,"Pizzéria, 78, Csongrádi sugárút, Gedó, Északi városrész, Szeged, Szegedi járás, Csongrád-Csanád megye, Dél-Alföld, Alföld és Észak, 6724, Magyarország",46.2685623,20.1504686,46.2546312,20.1486016,1.555206812844066 km,160.62643281486456 km
148, Tibi Papa Zabbantyú & Home Food,4.8,36,Boldogasszony sugárút 63,Pizza,Szendvics,Saláta,Olasz,Saláta,Szeged,Szeged Boldogasszony sugárút 63,"Szépség állomás, 63, Boldogasszony sugárút, Alsóváros, Szeged, Szegedi járás, Csongrád-Csanád megye, Dél-Alföld, Alföld és Észak, 6725, Magyarország",46.2413589,20.1419181,46.2546312,20.1486016,1.5627378243378494 km,162.88984554323818 km
149, Grillgyár,4.7,61,Bakay Nándor utca 29,Grill,Hamburger,Magyaros,Pizza,Készpénzes fizetés,Szeged,Szeged Bakay Nándor utca 29,"Grillgyár, 29, Bakay Nándor utca, Franciahögy lakópark, Móraváros, Szeged, Szegedi járás, Csongrád-Csanád megye, Dél-Alföld, Alföld és Észak, 6724, Magyarország",46.2591699,20.1280829,46.2546312,20.1486016,1.6605674122786707 km,160.642292281701 km
150, Rockabilly Chicken,4.8,621,Mésztelep 1/A,Pizza,Hamburger,Magyaros,Algida,Készpénzes fizetés,Miskolc,Miskolc Mésztelep 1/A,"Mésztelep, Miskolc, Miskolci járás, Borsod-Abaúj-Zemplén megye, Észak-Magyarország, Alföld és Észak, 3508, Magyarország",48.072337,20.7803638,48.1031503,20.7901985,3.5036566552198445 km,144.37465740153948 km
153, Pizza Hut Miskolc Pláza,4.6,174,Szentpáli utca 4,Pizza,Készpénzes fizetés,SZÉP kártyás fizetés,,,Miskolc,Miskolc Szentpáli utca 4,"Szentpáli utca, Vörösmarty-városrész, Miskolc, Miskolci járás, Borsod-Abaúj-Zemplén megye, Észak-Magyarország, Alföld és Észak, 3530, Magyarország",48.1025839,20.7891051,48.1031503,20.7901985,0.10294529179100084 km,146.43441382952633 km
155, Diablo Pizzéria Miskolc,4.3,239,Csabai kapu 26,Olasz,Magyaros,Vegetariánus,Pizza,Vegetáriánus,Miskolc,Miskolc Csabai kapu 26,"Csabai kapu, Csermőke, Népkert, Miskolc, Miskolci járás, Borsod-Abaúj-Zemplén megye, Észak-Magyarország, Alföld és Észak, 3529, Magyarország",48.0939833,20.785703,48.1031503,20.7901985,1.0728876747471512 km,145.7823317011219 km
158, Príma Pizza,4.8,139,Ady Endre utca 9,Pizza,Készpénzes fizetés,,,,Miskolc,Miskolc Ady Endre utca 9,"9, Ady Endre utca, Zsolcai kapu, Miskolc, Miskolci járás, Borsod-Abaúj-Zemplén megye, Észak-Magyarország, Alföld és Észak, 3527, Magyarország",48.1041107,20.79066284605096,48.1031503,20.7901985,0.11224913391423354 km,146.61408655412137 km
159, Chef House,4.7,50,Egyetemváros A/6.,Pizza,Magyaros,Hamburger,Készpénzes fizetés,,Miskolc,Miskolc Egyetemváros A/6.,"Egyetemváros, Miskolc, Miskolci járás, Borsod-Abaúj-Zemplén megye, Észak-Magyarország, Alföld és Észak, 3515, Magyarország",48.0811234,20.766029,48.1031503,20.7901985,3.03978018398194 km,143.83670224896508 km
160, UNI-Pizza,4.4,15,Egyetemváros A/6,Pizza,Készpénzes fizetés,SZÉP kártyás fizetés,,,Miskolc,Miskolc Egyetemváros A/6,"Egyetemváros, Miskolc, Miskolci járás, Borsod-Abaúj-Zemplén megye, Észak-Magyarország, Alföld és Észak, 3515, Magyarország",48.0811234,20.766029,48.1031503,20.7901985,3.03978018398194 km,143.83670224896508 km
161, Pizza Boy Miskolc,4.7,96,Mésztelep 1/A,Pizza,Algida,Készpénzes fizetés,SZÉP kártyás fizetés,,Miskolc,Miskolc Mésztelep 1/A,"Mésztelep, Miskolc, Miskolci járás, Borsod-Abaúj-Zemplén megye, Észak-Magyarország, Alföld és Észak, 3508, Magyarország",48.072337,20.7803638,48.1031503,20.7901985,3.5036566552198445 km,144.37465740153948 km
162, Pizza Mobil,4.7,372,Zamenhof utca 1,Olasz,Pizza,Készpénzes fizetés,,,Miskolc,Miskolc Zamenhof utca 1,"Zamenhof utca, Zsolcai kapu, Miskolc, Miskolci járás, Borsod-Abaúj-Zemplén megye, Észak-Magyarország, Alföld és Észak, 3530, Magyarország",48.101559,20.7987922,48.1031503,20.7901985,0.6640458852506663 km,147.02960813665715 km
163, Rossita,4.8,629,Meggyesalja u. 18,Olasz,Pizza,Készpénzes fizetés,,,Miskolc,Miskolc Meggyesalja u. 18,"Rossita kisvendéglő, 18, Meggyesalja utca, Muszkástelep, Vologda, Miskolc, Miskolci járás, Borsod-Abaúj-Zemplén megye, Észak-Magyarország, Alföld és Észak, 3530, Magyarország",48.101483,20.772383,48.1031503,20.7901985,1.3397460029948483 km,145.26623541333012 km
164, Király Pizza - Miskolc,4.6,918,Déryné utca 7,Olasz,Hamburger,Amerikai,Görög,Pizza,Miskolc,Miskolc Déryné utca 7,"Déryné utca, Belváros, Miskolc, Miskolci járás, Borsod-Abaúj-Zemplén megye, Észak-Magyarország, Alföld és Észak, 3525, Magyarország",48.1041732,20.7843307,48.1031503,20.7901985,0.45156736359875993 km,146.19559960276894 km
166, Pizza Terasz,,,Nagy Lajos király útja 5,Pizza,Készpénzes fizetés,SZÉP kártyás fizetés,,,Miskolc,Miskolc Nagy Lajos király útja 5,"Nagy Lajos király útja, Diósgyőri-lakótelep, Diósgyőr, Miskolc, Miskolci járás, Borsod-Abaúj-Zemplén megye, Észak-Magyarország, Alföld és Észak, 3534, Magyarország",48.0997883,20.6928456,48.1031503,20.7901985,7.260366741784028 km,139.91396476763802 km
168, Valentino Pizzéria,4.9,58,Kuruc utca 37,Pizza,Készpénzes fizetés,,,,Miskolc,Miskolc Kuruc utca 37,"37, Kuruc utca, Diósgyőri-lakótelep, Berekalja, Miskolc, Miskolci járás, Borsod-Abaúj-Zemplén megye, Észak-Magyarország, Alföld és Észak, 3535, Magyarország",48.1031987,20.6891349,48.1031503,20.7901985,7.526858124369388 km,139.84719412600873 km
170, Don Pepe - Pécs,4.7,878,Megyeri út 76,Olasz,Nemzetközi,Magyaros,Hamburger,Vegán,Pécs,Pécs Megyeri út 76,"Pécs Pláza posta, 76, Megyeri út, Kertváros, Pécs, Pécsi járás, Baranya megye, Dél-Dunántúl, Dunántúl, 7609, Magyarország",46.0495757,18.210868,46.0763222,18.2280746,3.257440977129086 km,173.60471477782158 km
171, Donkey Pizza,4.7,479,Rákóczi út 50,Pizza,Algida,Készpénzes fizetés,,,Pécs,Pécs Rákóczi út 50,"Rákóczi út, Puturluk, Budai városrész, Pécs, Pécsi járás, Baranya megye, Dél-Dunántúl, Dunántúl, 7626, Magyarország",46.0748645,18.2398524,46.0763222,18.2280746,0.9253990501481445 km,170.17310681187567 km
172, Maestro Pizzeria - Pécs,4.5,178,Klimó György utca 12,Pizza,Magyaros,Hamburger,Amerikai,Olasz,Pécs,Pécs Klimó György utca 12,"Klimó György utca, Solidus Lakópark, Belváros, Pécs, Pécsi járás, Baranya megye, Dél-Dunántúl, Dunántúl, 7624, Magyarország",46.0767079,18.2207357,46.0763222,18.2280746,0.569327737637427 km,170.51844798019187 km
173, Grano Pizza & Pasta & Salad,4.7,202,Rákóczi út 71/a,Pizza,Tészta,Olasz,Tészta,Algida,Pécs,Pécs Rákóczi út 71/a,"Rákóczi út, Puturluk, Budai városrész, Pécs, Pécsi járás, Baranya megye, Dél-Dunántúl, Dunántúl, 7626, Magyarország",46.0748645,18.2398524,46.0763222,18.2280746,0.9253990501481445 km,170.17310681187567 km
175, Best Food Grill Pécs,4.5,120,Széchenyi tér 8,Pizza,Hamburger,Grill,Török,NetPincér GO,Pécs,Pécs Széchenyi tér 8,"Széchenyi tér, Schlauch-villatelep, Belváros, Pécs, Pécsi járás, Baranya megye, Dél-Dunántúl, Dunántúl, 7621, Magyarország",46.07641615,18.2280747727006,46.0763222,18.2280746,0.010442815082791192 km,170.34137844879567 km
176, Pizza Bagoly Pécs,4.5,31,József Attila utca 41,Olasz,Hamburger,Pizza,Készpénzes fizetés,SZÉP kártyás fizetés,Pécs,Pécs József Attila utca 41,"Gól söröző, 41, József Attila utca, Solidus Lakópark, Ispitaalja, Pécs, Pécsi járás, Baranya megye, Dél-Dunántúl, Dunántúl, 7623, Magyarország",46.070713,18.215733,46.0763222,18.2280746,1.140298312187121 km,171.2803071824634 km
177, 1290 StreetFood,,,Diós dűlő 8,Pizza,Készpénzes fizetés,SZÉP kártyás fizetés,,,Pécs,Pécs Diós dűlő 8,"Diós dűlő, Viktória-lakópark, Diós, Pécs, Pécsi járás, Baranya megye, Dél-Dunántúl, Dunántúl, 7627, Magyarország",46.0888851,18.2573573,46.0763222,18.2280746,2.66082139086254 km,168.23404471789985 km
178, GP Ring (Grappa Pizzéria),4.6,81,Szaturnusz utca 2,Olasz,Pizza,Algida,Készpénzes fizetés,SZÉP kártyás fizetés,Pécs,Pécs Szaturnusz utca 2,"Szaturnusz utca, Málom, Pécs, Pécsi járás, Baranya megye, Dél-Dunántúl, Dunántúl, 7636, Magyarország",46.0297073,18.2176781,46.0763222,18.2280746,5.243452470671568 km,175.4740917379998 km
179, Roberto's Pizzéria,,,Makay István út 6,Pizza,Készpénzes fizetés,,,,Pécs,Pécs Makay István út 6,"Makay István út, Uránbányász-tér, Kovácstelep, Pécs, Pécsi járás, Baranya megye, Dél-Dunántúl, Dunántúl, 7633, Magyarország",46.0650834,18.1892686,46.0763222,18.2280746,3.2517411847655096 km,172.6218058385184 km
180, Park Pizza,4.8,124,Dózsa György utca 104,Magyaros,Amerikai,Pizza,Készpénzes fizetés,SZÉP kártyás fizetés,Pécs,Pécs Dózsa György utca 104,"Dózsa György utca, Viktória-lakópark, Diós, Pécs, Pécsi járás, Baranya megye, Dél-Dunántúl, Dunántúl, 7630, Magyarország",46.0905828,18.259445,46.0763222,18.2280746,2.8982714496396507 km,168.00032624470612 km
181, Főnix Pizzéria,4.8,371,Hunyadi utca 2,Olasz,Pizza,Készpénzes fizetés,,,Pécs,Pécs Hunyadi utca 2,"Hunyadi János utca, Zidina, Mecsekoldal, Pécs, Pécsi járás, Baranya megye, Dél-Dunántúl, Dunántúl, 7625, Magyarország",46.0890802,18.2240858,46.0763222,18.2280746,1.4512630456391997 km,169.14416351590728 km
182, Pizza di Casa Pécs,4.7,598,Megyeri út 4,Olasz,Pizza,Készpénzes fizetés,,,Pécs,Pécs Megyeri út 4,"Professors Gym, 4, Megyeri út, Solidus Lakópark, Ispitaalja, Pécs, Pécsi járás, Baranya megye, Dél-Dunántúl, Dunántúl, 7623, Magyarország",46.070328,18.2132857,46.0763222,18.2280746,1.3239499715173357 km,171.38968620330394 km
183, Apolló Étterem,4.6,318,Őz utca 5,Olasz,Magyaros,Pizza,Készpénzes fizetés,,Pécs,Pécs Őz utca 5,"Apolló pizzéria és étterem, 5, Őz utca, Solidus Lakópark, Szigeti külváros, Pécs, Pécsi járás, Baranya megye, Dél-Dunántúl, Dunántúl, 7624, Magyarország",46.07456535,18.213290451759384,46.0763222,18.2280746,1.1602232940662367 km,170.95168130178058 km
184, Napsugár Pizzéria-Étterem,4.4,221,Szabadság utca 26,Olasz,Magyaros,Hamburger,Amerikai,Pizza,Pécs,Pécs Szabadság utca 26,"Szabadság út, Schlauch-villatelep, Siklósi városrész, Pécs, Pécsi járás, Baranya megye, Dél-Dunántúl, Dunántúl, 7623, Magyarország",46.0677278,18.2251568,46.0763222,18.2280746,0.9815978965780986 km,171.32314727576303 km
186, Pizza Expressz Futárszolgálat,4.6,46,Szabadság utca 26,Pizza,Készpénzes fizetés,SZÉP kártyás fizetés,,,Pécs,Pécs Szabadság utca 26,"Szabadság út, Schlauch-villatelep, Siklósi városrész, Pécs, Pécsi járás, Baranya megye, Dél-Dunántúl, Dunántúl, 7623, Magyarország",46.0677278,18.2251568,46.0763222,18.2280746,0.9815978965780986 km,171.32314727576303 km
188, Pizza Zone Pécs,4.1,23,Szabadság utca 26,Pizza,Készpénzes fizetés,SZÉP kártyás fizetés,,,Pécs,Pécs Szabadság utca 26,"Szabadság út, Schlauch-villatelep, Siklósi városrész, Pécs, Pécsi járás, Baranya megye, Dél-Dunántúl, Dunántúl, 7623, Magyarország",46.0677278,18.2251568,46.0763222,18.2280746,0.9815978965780986 km,171.32314727576303 km
189, Elixír Restaurant and Pizzeria,4.6,93,Ifjúság útja 11,Olasz,Nemzetközi,Magyaros,Mexikói,Hamburger,Pécs,Pécs Ifjúság útja 11,"Ifjúság útja, Uránbányász-tér, Csoronika, Pécs, Pécsi járás, Baranya megye, Dél-Dunántúl, Dunántúl, 7624, Magyarország",46.0752655,18.2033805,46.0763222,18.2280746,1.9138804029909615 km,171.16367695840088 km
190, Grizzly Pizzéria,4.7,70,Őz utca 5,Pizza,Készpénzes fizetés,,,,Pécs,Pécs Őz utca 5,"Apolló pizzéria és étterem, 5, Őz utca, Solidus Lakópark, Szigeti külváros, Pécs, Pécsi járás, Baranya megye, Dél-Dunántúl, Dunántúl, 7624, Magyarország",46.07456535,18.213290451759384,46.0763222,18.2280746,1.1602232940662367 km,170.95168130178058 km
191, Inferno's Pizzéria,4.5,61,Őz utca 5,Pizza,Készpénzes fizetés,SZÉP kártyás fizetés,,,Pécs,Pécs Őz utca 5,"Apolló pizzéria és étterem, 5, Őz utca, Solidus Lakópark, Szigeti külváros, Pécs, Pécsi járás, Baranya megye, Dél-Dunántúl, Dunántúl, 7624, Magyarország",46.07456535,18.213290451759384,46.0763222,18.2280746,1.1602232940662367 km,170.95168130178058 km
192, Ernesto Pizzéria - Pécs,4.3,66,József Attila utca 41,Olasz,Magyaros,Hamburger,Amerikai,Pizza,Pécs,Pécs József Attila utca 41,"Gól söröző, 41, József Attila utca, Solidus Lakópark, Ispitaalja, Pécs, Pécsi járás, Baranya megye, Dél-Dunántúl, Dunántúl, 7623, Magyarország",46.070713,18.215733,46.0763222,18.2280746,1.140298312187121 km,171.2803071824634 km
193, Panda Fast Food,4.4,84,Százszorszép utca 19,Nemzetközi,Magyaros,Hamburger,Tészta,Pizza,Pécs,Pécs Százszorszép utca 19,"19, Százszorszép utca, Uránbányász-tér, Kovácstelep, Pécs, Pécsi járás, Baranya megye, Dél-Dunántúl, Dunántúl, 7634, Magyarország",46.0644738,18.189620259545457,46.0763222,18.2280746,3.2534880691717962 km,172.67438148270992 km
194, NaPizza,4.9,345,Megyeri út 72,Olasz,Pizza,Készpénzes fizetés,,,Pécs,Pécs Megyeri út 72,"Megyeri út, Kertváros, Pécs, Pécsi járás, Baranya megye, Dél-Dunántúl, Dunántúl, 7632, Magyarország",46.0485744,18.2138037,46.0763222,18.2280746,3.275949177753339 km,173.62577750006554 km
195, Joker Food,4.6,314,Mártírok útja 14,Pizza,Magyaros,Hamburger,Készpénzes fizetés,,Pécs,Pécs Mártírok útja 14,"Joker Hostel, 14, Mártírok útja, Schlauch-villatelep, Ispitaalja, Pécs, Pécsi járás, Baranya megye, Dél-Dunántúl, Dunántúl, 7623, Magyarország",46.067253199999996,18.22236825952887,46.0763222,18.2280746,1.1004724657335192 km,171.45067979009278 km
196, Póker Pizza Pécs,4.8,159,Megyeri út 64,Olasz,Pizza,Készpénzes fizetés,,,Pécs,Pécs Megyeri út 64,"Seal Ring, 64, Megyeri út, Solidus Lakópark, Északmegyer, Pécs, Pécsi járás, Baranya megye, Dél-Dunántúl, Dunántúl, 7623, Magyarország",46.0607752,18.2122743,46.0763222,18.2280746,2.11675079634026 km,172.40611359548242 km
197, Replay Café & Restaurant,4.6,45,Király utca 4,Pizza,Olasz,Nemzetközi,Mexikói,Hamburger,Pécs,Pécs Király utca 4,"4, Király utca, Zidina, Belváros, Pécs, Pécsi járás, Baranya megye, Dél-Dunántúl, Dunántúl, 7621, Magyarország",46.0761579,18.2291534,46.0763222,18.2280746,0.08542742373811299 km,170.33779905030522 km
198, Király 21 Beerhouse & Grill,4.9,59,Király utca 21,Pizza,Olasz,Nemzetközi,Mexikói,Amerikai,Pécs,Pécs Király utca 21,"Addiktológia, 21, Király utca, Zidina, Belváros, Pécs, Pécsi járás, Baranya megye, Dél-Dunántúl, Dunántúl, 7621, Magyarország",46.0771716,18.2320543,46.0763222,18.2280746,0.3220062965873405 km,170.15140046239824 km
199, Lucifer's Kitchen,4.8,162,Felsővámház utca 51,Pizza,Hamburger,Készpénzes fizetés,,,Pécs,Pécs Felsővámház utca 51,"Felsővámház utca, Erzsébettelep (Ullmann-telep), Budai városrész, Pécs, Pécsi járás, Baranya megye, Dél-Dunántúl, Dunántúl, 7626, Magyarország",46.0784003,18.2442766,46.0763222,18.2280746,1.2744179335689314 km,169.68355814665472 km
200, Oliva Étterem Pizzéria,4.4,39,Citrom utca 12,Magyaros,Pizza,NetPincér GO,SZÉP kártyás fizetés,Érintkezésmentes kiszállítás,Pécs,Pécs Citrom utca 12,"Citrom utca, Schlauch-villatelep, Siklósi városrész, Pécs, Pécsi járás, Baranya megye, Dél-Dunántúl, Dunántúl, 7621, Magyarország",46.0735915,18.2289026,46.0763222,18.2280746,0.31020984398676565 km,170.61065237982933 km
201, Happy Hippo,4.8,462,Esztergár Lajos utca 10,Pizza,Készpénzes fizetés,SZÉP kártyás fizetés,,,Pécs,Pécs Esztergár Lajos utca 10,"Esztergár Lajos utca, Uránbányász-tér, Uránváros, Pécs, Pécsi járás, Baranya megye, Dél-Dunántúl, Dunántúl, 7633, Magyarország",46.0636314,18.1942527,46.0763222,18.2280746,2.9726591294328517 km,172.6269519806575 km
202, Elefántos Étterem és Pizzéria,4.6,49,Jókai tér 6,Pizza,Olasz,Algida,Készpénzes fizetés,SZÉP kártyás fizetés,Pécs,Pécs Jókai tér 6,"Elefántos étterem és pizzéria, 6, Jókai tér, Schlauch-villatelep, Belváros, Pécs, Pécsi járás, Baranya megye, Dél-Dunántúl, Dunántúl, 7621, Magyarország",46.0756034,18.2273436,46.0763222,18.2280746,0.09788341736701789 km,170.44610224431275 km
203, Tímár26 Pizza,4.9,207,Tímár utca 26,Pizza,Készpénzes fizetés,SZÉP kártyás fizetés,,,Pécs,Pécs Tímár utca 26,"Tímár utca, Zidina, Siklósi városrész, Pécs, Pécsi járás, Baranya megye, Dél-Dunántúl, Dunántúl, 7621, Magyarország",46.0745592,18.2339055,46.0763222,18.2280746,0.4917949147795442 km,170.37033450888777 km
204, Park Pizza - Éjszakai,4.5,28,Dózsa György utca 104,Amerikai,Hamburger,Pizza,SZÉP kártyás fizetés,,Pécs,Pécs Dózsa György utca 104,"Dózsa György utca, Viktória-lakópark, Diós, Pécs, Pécsi járás, Baranya megye, Dél-Dunántúl, Dunántúl, 7630, Magyarország",46.0905828,18.259445,46.0763222,18.2280746,2.8982714496396507 km,168.00032624470612 km
